NORAD_CAT_ID,OBJECT_NAME,OBJECT_TYPE,EPOCH,MEAN_MOTION,ECCENTRICITY,INCLINATION,RA_OF_ASC_NODE,ARG_OF_PERICENTER,MEAN_ANOMALY,BSTAR,MEAN_MOTION_DOT,MEAN_MOTION_DDOT,TLE_LINE0,TLE_LINE1,TLE_LINE2,SEMIMAJOR_AXIS,PERIOD,APOGEE,PERIGEE,DECAYED
52485.0,STARLINK-3913,PAYLOAD,2023-04-10 13:31:11,15.08852385,0.0001174,53.2159,146.1677,88.4051,271.7075,0.00040012,6.088e-05,0.0,0 STARLINK-3913,1 52485U 22049AL  23100.56333162  .00006088  00000-0  40012-3 0  9998,2 52485  53.2159 146.1677 0001174  88.4051 271.7075 15.08852385 51901,6917.843,95.437,540.52,538.895,0.0
52485.0,STARLINK-3913,PAYLOAD,2023-04-10 19:52:44,15.08842408,0.0001091,53.2157,144.9798,93.9371,266.1746,0.00016699,2.371e-05,0.0,0 STARLINK-3913,1 52485U 22049AL  23100.82829314  .00002371  00000-0  16699-3 0  9991,2 52485  53.2157 144.9798 0001091  93.9371 266.1746 15.08842408 51787,6917.873,95.437,540.493,538.983,0.0
52485.0,STARLINK-3913,PAYLOAD,2023-04-11 10:11:12,15.08850787,0.000127,53.2157,142.3024,83.2519,276.8618,0.0002553,3.779e-05,0.0,0 STARLINK-3913,1 52485U 22049AL  23101.42444983  .00003779  00000-0  25530-3 0  9990,2 52485  53.2157 142.3024 0001270  83.2519 276.8618 15.08850787 51871,6917.847,95.437,540.591,538.834,0.0
52485.0,STARLINK-3913,PAYLOAD,2023-04-11 19:43:31,15.08833786,0.0001003,53.2166,140.5174,97.4609,262.6497,-0.00020918,-3.615e-05,0.0,0 STARLINK-3913,1 52485U 22049AL  23101.82189202 -.00003615  00000-0 -20918-3 0  9990,2 52485  53.2166 140.5174 0001003  97.4609 262.6497 15.08833786 51933,6917.899,95.438,540.458,539.071,0.0
52485.0,STARLINK-3913,PAYLOAD,2023-04-12 10:01:59,15.08835019,0.0001217,53.2153,137.8427,91.7566,268.3565,-1.8849e-05,-5.88e-06,0.0,0 STARLINK-3913,1 52485U 22049AL  23102.41805381 -.00000588  00000-0 -18849-4 0  9996,2 52485  53.2153 137.8427 0001217  91.7566 268.3565 15.08835019 52026,6917.896,95.438,540.603,538.919,0.0
52485.0,STARLINK-3913,PAYLOAD,2023-04-13 08:17:24,15.08836807,0.0001432,53.216,133.6804,80.0352,280.0802,0.00010874,1.443e-05,0.0,0 STARLINK-3913,1 52485U 22049AL  23103.34542110  .00001443  00000-0  10874-3 0  9995,2 52485  53.2160 133.6804 0001432  80.0352 280.0802 15.08836807 52166,6917.89,95.438,540.746,538.765,0.0
52485.0,STARLINK-3913,PAYLOAD,2023-04-13 19:25:06,15.08843488,0.0001275,53.2156,131.5987,80.8144,279.2992,0.0002827,4.215e-05,0.0,0 STARLINK-3913,1 52485U 22049AL  23103.80910012  .00004215  00000-0  28270-3 0  9995,2 52485  53.2156 131.5987 0001275  80.8144 279.2992 15.08843488 52390,6917.87,95.437,540.617,538.853,0.0
52485.0,STARLINK-3913,PAYLOAD,2023-04-14 11:18:57,15.08855563,0.0001324,53.2158,128.6243,85.1256,274.9888,0.0006566,0.00010182,0.0,0 STARLINK-3913,1 52485U 22049AL  23104.47149833  .00010182  00000-0  65660-3 0  9998,2 52485  53.2158 128.6243 0001324  85.1256 274.9888 15.08855563 52338,6917.833,95.437,540.614,538.782,0.0
52485.0,STARLINK-3913,PAYLOAD,2023-04-15 00:02:02,15.08849664,0.0002205,53.215,126.2516,54.13,305.9897,0.00037816,5.737e-05,0.0,0 STARLINK-3913,1 52485U 22049AL  23105.00142174  .00005737  00000-0  37816-3 0  9991,2 52485  53.2150 126.2516 0002205  54.1300 305.9897 15.08849664 52578,6917.851,95.437,541.241,538.19,0.0
52485.0,STARLINK-3913,PAYLOAD,2023-04-15 07:58:58,15.08844512,0.000114,53.2161,124.7592,84.8477,275.2646,0.00028392,4.234e-05,0.0,0 STARLINK-3913,1 52485U 22049AL  23105.33262077  .00004234  00000-0  28392-3 0  9992,2 52485  53.2161 124.7592 0001140  84.8477 275.2646 15.08844512 52465,6917.867,95.437,540.52,538.943,0.0
52485.0,STARLINK-3913,PAYLOAD,2023-04-16 04:38:59,15.08846078,0.0001369,53.216,120.8931,87.6064,272.5085,0.00039682,6.034e-05,0.0,0 STARLINK-3913,1 52485U 22049AL  23106.19374201  .00006034  00000-0  39682-3 0  9994,2 52485  53.2160 120.8931 0001369  87.6064 272.5085 15.08846078 52752,6917.862,95.437,540.674,538.78,0.0
52485.0,STARLINK-3913,PAYLOAD,2023-04-16 07:49:45,15.08846701,0.000138,53.2161,120.2986,86.6294,273.4856,0.00042227,6.44e-05,0.0,0 STARLINK-3913,1 52485U 22049AL  23106.32622165  .00006440  00000-0  42227-3 0  9994,2 52485  53.2161 120.2986 0001380  86.6294 273.4856 15.08846701 52618,6917.86,95.437,540.68,538.77,0.0
52485.0,STARLINK-3913,PAYLOAD,2023-04-16 17:22:04,15.08842456,0.0001384,53.2159,118.5141,81.2673,278.8475,0.00020071,2.908e-05,0.0,0 STARLINK-3913,1 52485U 22049AL  23106.72366257  .00002908  00000-0  20071-3 0  9993,2 52485  53.2159 118.5141 0001384  81.2673 278.8475 15.08842456 52679,6917.873,95.437,540.695,538.78,0.0
52485.0,STARLINK-3913,PAYLOAD,2023-04-17 06:05:09,15.08836343,0.0001458,53.2164,116.136,102.3429,257.7726,7.2066e-05,8.59e-06,0.0,0 STARLINK-3913,1 52485U 22049AL  23107.25358541  .00000859  00000-0  72066-4 0  9994,2 52485  53.2164 116.1360 0001458 102.3429 257.7726 15.08836343 52918,6917.892,95.438,540.765,538.748,0.0
52485.0,STARLINK-3913,PAYLOAD,2023-04-17 17:12:51,15.0883756,0.0001457,53.2163,114.0547,102.9142,257.2013,5.5467e-05,5.95e-06,0.0,0 STARLINK-3913,1 52485U 22049AL  23107.71726559  .00000595  00000-0  55467-4 0  9996,2 52485  53.2163 114.0547 0001457 102.9142 257.2013 15.08837560 52824,6917.888,95.438,540.761,538.745,0.0
52485.0,STARLINK-3913,PAYLOAD,2023-04-18 07:31:19,15.08843039,0.0001414,53.2162,111.378,101.4095,258.7056,0.00011617,1.562e-05,0.0,0 STARLINK-3913,1 52485U 22049AL  23108.31342268  .00001562  00000-0  11617-3 0  9997,2 52485  53.2162 111.3780 0001414 101.4095 258.7056 15.08843039 52917,6917.871,95.437,540.714,538.758,0.0
52485.0,STARLINK-3913,PAYLOAD,2023-04-18 17:03:38,15.08840757,0.0001317,53.2165,109.5946,95.3881,264.7262,9.5877e-05,1.238e-05,0.0,0 STARLINK-3913,1 52485U 22049AL  23108.71086410  .00001238  00000-0  95877-4 0  9996,2 52485  53.2165 109.5946 0001317  95.3881 264.7262 15.08840757 53134,6917.878,95.438,540.654,538.832,0.0
52485.0,STARLINK-3913,PAYLOAD,2023-04-19 04:11:21,15.08835247,0.0001407,53.2191,107.5136,95.7299,264.3853,8.184e-05,1.015e-05,0.0,0 STARLINK-3913,1 52485U 22049AL  23109.17455201  .00001015  00000-0  81840-4 0  9993,2 52485  53.2191 107.5136 0001407  95.7299 264.3853 15.08835247 53207,6917.895,95.438,540.733,538.787,0.0
52485.0,STARLINK-3913,PAYLOAD,2023-04-19 07:22:07,15.08836055,0.0001301,53.2175,106.9173,101.2199,258.8939,8.518e-05,1.068e-05,0.0,0 STARLINK-3913,1 52485U 22049AL  23109.30703051  .00001068  00000-0  85180-4 0  9996,2 52485  53.2175 106.9173 0001301 101.2199 258.8939 15.08836055 53063,6917.892,95.438,540.657,538.857,0.0
52485.0,STARLINK-3913,PAYLOAD,2023-04-19 16:54:26,15.08838949,0.0001329,53.2193,105.1335,95.142,264.9724,8.3663e-05,1.044e-05,0.0,0 STARLINK-3913,1 52485U 22049AL  23109.70446993  .00001044  00000-0  83663-4 0  9997,2 52485  53.2193 105.1335 0001329  95.1420 264.9724 15.08838949 53123,6917.884,95.438,540.668,538.829,0.0
52485.0,STARLINK-3913,PAYLOAD,2023-04-20 05:37:31,15.08839157,0.0001405,53.2191,102.7539,89.1286,270.9867,0.00015614,2.198e-05,0.0,0 STARLINK-3913,1 52485U 22049AL  23110.23438868  .00002198  00000-0  15614-3 0  9990,2 52485  53.2191 102.7539 0001405  89.1286 270.9867 15.08839157 53361,6917.883,95.438,540.72,538.776,0.0
52485.0,STARLINK-3913,PAYLOAD,2023-04-20 08:48:16,15.08848672,0.0001463,53.2191,102.1594,86.96,273.156,9.6426e-05,1.247e-05,0.0,0 STARLINK-3913,1 52485U 22049AL  23110.36686285  .00001247  00000-0  96426-4 0  9997,2 52485  53.2191 102.1594 0001463  86.9600 273.1560 15.08848672 53227,6917.854,95.437,540.731,538.707,0.0
52485.0,STARLINK-3913,PAYLOAD,2023-04-20 16:45:13,15.08836642,0.00015,53.219,100.67,82.1508,277.9654,1.3876e-05,-6.7e-07,0.0,0 STARLINK-3913,1 52485U 22049AL  23110.69807242 -.00000067  00000-0  13876-4 0  9999,2 52485  53.2190 100.6700 0001500  82.1508 277.9654 15.08836642 53270,6917.891,95.438,540.793,538.718,0.0
52485.0,STARLINK-3913,PAYLOAD,2023-04-21 05:28:18,15.08832582,0.0001449,53.218,98.2918,82.5211,277.5946,5.7808e-05,6.32e-06,0.0,0 STARLINK-3913,1 52485U 22049AL  23111.22799576  .00000632  00000-0  57808-4 0  9999,2 52485  53.2180  98.2918 0001449  82.5211 277.5946 15.08832582 53515,6917.903,95.438,540.77,538.766,0.0
52485.0,STARLINK-3913,PAYLOAD,2023-04-21 16:36:00,15.08840103,0.0001282,53.2177,96.2109,88.5937,271.5202,7.5791e-05,9.19e-06,0.0,0 STARLINK-3913,1 52485U 22049AL  23111.69167121  .00000919  00000-0  75791-4 0  9994,2 52485  53.2177  96.2109 0001282  88.5937 271.5202 15.08840103 53581,6917.88,95.438,540.632,538.858,0.0
52485.0,STARLINK-3913,PAYLOAD,2023-04-23 08:20:38,15.08843507,7.88e-05,53.217,88.7794,63.8786,296.2287,6.562e-05,7.57e-06,0.0,0 STARLINK-3913,1 52485U 22049AL  23113.34766599  .00000757  00000-0  65620-4 0  9992,2 52485  53.2170  88.7794 0000788  63.8786 296.2287 15.08843507 53834,6917.87,95.437,540.28,539.19,0.0
52485.0,STARLINK-3913,PAYLOAD,2023-04-24 05:00:38,15.0885576,0.0001253,53.2184,84.9105,93.5371,266.5764,8.5676e-05,1.076e-05,0.0,0 STARLINK-3913,1 52485U 22049AL  23114.20877790  .00001076  00000-0  85676-4 0  9992,2 52485  53.2184  84.9105 0001253  93.5371 266.5764 15.08855760 53969,6917.832,95.437,540.564,538.83,0.0
52485.0,STARLINK-3913,PAYLOAD,2023-04-24 06:36:01,15.08859212,0.0001239,53.2185,84.613,91.0402,269.0732,6.8687e-05,8.06e-06,0.0,0 STARLINK-3913,1 52485U 22049AL  23114.27501557  .00000806  00000-0  68687-4 0  9997,2 52485  53.2185  84.6130 0001239  91.0402 269.0732 15.08859212 53810,6917.822,95.436,540.544,538.83,0.0
52485.0,STARLINK-3913,PAYLOAD,2023-04-25 08:02:12,15.08840403,0.0001123,53.2181,79.8561,93.9508,266.1613,3.7945e-05,3.16e-06,0.0,0 STARLINK-3913,1 52485U 22049AL  23115.33486500  .00000316  00000-0  37945-4 0  9994,2 52485  53.2181  79.8561 0001123  93.9508 266.1613 15.08840403 53975,6917.879,95.438,540.521,538.967,0.0
52485.0,STARLINK-3913,PAYLOAD,2023-04-26 06:17:38,15.08824645,0.0001407,53.2184,75.6927,84.9499,275.1654,-0.00017202,-3.023e-05,0.0,0 STARLINK-3913,1 52485U 22049AL  23116.26225146 -.00003023  00000-0 -17202-3 0  9997,2 52485  53.2184  75.6927 0001407  84.9499 275.1654 15.08824645 54114,6917.927,95.439,540.766,538.819,0.0
